[{"OBJECT_NAME":"STARLINK-5852","OBJECT_ID":"2023-037V","EPOCH":"2026-03-09T22:17:22.804224","MEAN_MOTION":14.9832848,"ECCENTRICITY":0.00025234,"INCLINATION":69.9979,"RA_OF_ASC_NODE":283.9509,"ARG_OF_PERICENTER":270.8029,"MEAN_ANOMALY":89.2841,"EPHEMERIS_TYPE":0,"CLASSIFICATION_TYPE":"U","NORAD_CAT_ID":55933,"ELEMENT_SET_NO":999,"REV_AT_EPOCH":16401,"BSTAR":9.49923e-7,"MEAN_MOTION_DOT":-8.2e-7,"MEAN_MOTION_DDOT":0},{"OBJECT_NAME":"CZ-4B R\/B","OBJECT_ID":"2024-208C","EPOCH":"2026-03-09T16:49:23.143584","MEAN_MOTION":15.26980605,"ECCENTRICITY":0.01307988,"INCLINATION":97.9574,"RA_OF_ASC_NODE":113.1946,"ARG_OF_PERICENTER":150.913,"MEAN_ANOMALY":209.9477,"EPHEMERIS_TYPE":0,"CLASSIFICATION_TYPE":"U","NORAD_CAT_ID":61938,"ELEMENT_SET_NO":999,"REV_AT_EPOCH":7308,"BSTAR":0.00035146236,"MEAN_MOTION_DOT":0.000119,"MEAN_MOTION_DDOT":0}]
